{
  "norad_id": 65287,
  "name": "STARLINK-35007",
  "history": [
    {
      "epoch": "2026-03-28T20:50:30.050304Z",
      "apogee_km": 550.5400638531828,
      "perigee_km": 548.5392122865751,
      "latitude_deg": 5.352441640456757e-05,
      "longitude_deg": 2.6112099714071864,
      "height_km": 552.8649246143858,
      "semi_major_axis_km": 6927.676638069878,
      "eccentricity": 0.00014441,
      "inclination_deg": 97.6028,
      "raan_deg": 141.5191,
      "arg_perigee_deg": 105.1995,
      "mean_anomaly_deg": 254.9392,
      "mean_motion_rev_day": 15.05640714
    },
    {
      "epoch": "2026-03-29T03:13:18.132096Z",
      "apogee_km": 550.5231935832553,
      "perigee_km": 548.5266414186326,
      "latitude_deg": 7.518334627786397e-05,
      "longitude_deg": -93.08915190940422,
      "height_km": 552.8885532947944,
      "semi_major_axis_km": 6927.661917500944,
      "eccentricity": 0.0001441,
      "inclination_deg": 97.6027,
      "raan_deg": 141.7811,
      "arg_perigee_deg": 107.5245,
      "mean_anomaly_deg": 252.614,
      "mean_motion_rev_day": 15.05645513
    }
  ]
}